NORAD_CAT_ID,OBJECT_NAME,OBJECT_TYPE,EPOCH,MEAN_MOTION,ECCENTRICITY,INCLINATION,RA_OF_ASC_NODE,ARG_OF_PERICENTER,MEAN_ANOMALY,BSTAR,MEAN_MOTION_DOT,MEAN_MOTION_DDOT,TLE_LINE0,TLE_LINE1,TLE_LINE2,SEMIMAJOR_AXIS,PERIOD,APOGEE,PERIGEE,DECAYED
49155.0,STARLINK-3060,PAYLOAD,2022-03-20 06:00:00,15.6977787,0.0003498999999999,70.0004,320.8446,257.221,313.4715,-0.00019898,-0.00023927,0.0,0 STARLINK-3060,1 49155U 21082AB  22079.25001157 -.00023927  00000-0 -19898-3 0  9991,2 49155  70.0004 320.8446 0003499 257.2210 313.4715 15.69777870 30541,6737.67,91.733,361.892,357.177,0.0
49155.0,STARLINK-3060,PAYLOAD,2022-03-20 12:00:00,15.69551514,0.000358,70.0003,320.1583,255.0459,288.023,0.0024557,0.00301262,0.0,0 STARLINK-3060,1 49155U 21082AB  22079.50001157  .00301262  00000-0  24557-2 0  9995,2 49155  70.0003 320.1583 0003580 255.0459 288.0230 15.69551514 30585,6738.316999999999,91.746,362.595,357.77,0.0
49155.0,STARLINK-3060,PAYLOAD,2022-03-20 14:00:01,15.69679816,0.0003639,70.0001,319.9259,254.9798,38.7942,0.0009188,0.00110615,0.0,0 STARLINK-3060,1 49155U 21082AB  22079.58334491  .00110615  00000-0  91880-3 0  9997,2 49155  70.0001 319.9259 0003639 254.9798  38.7942 15.69679816  3685,6737.95,91.738,362.267,357.36300000000006,0.0
49155.0,STARLINK-3060,PAYLOAD,2022-03-20 22:00:01,15.69759975,0.0003389,70.0008,318.9702,254.2328,122.8801,0.00022672,0.00026952,0.0,0 STARLINK-3060,1 49155U 21082AB  22079.91668981  .00026952  00000-0  22672-3 0  9991,2 49155  70.0008 318.9702 0003389 254.2328 122.8801 15.69759975  3705,6737.721,91.734,361.869,357.302,0.0
49155.0,STARLINK-3060,PAYLOAD,2022-03-21 06:00:00,15.69819534,0.0003332,70.0004,318.0331,256.1993,203.9794,-0.0010724,-0.00126686,0.0,0 STARLINK-3060,1 49155U 21082AB  22080.25001157 -.00126686  00000-0 -10724-2 0  9997,2 49155  70.0004 318.0331 0003332 256.1993 203.9794 15.69819534 30707,6737.55,91.73,361.66,357.17,0.0
49155.0,STARLINK-3060,PAYLOAD,2022-03-21 14:00:01,15.69741907,0.0003474,70.0006,317.0964,249.651,293.6852,0.00017596,0.00020839,0.0,0 STARLINK-3060,1 49155U 21082AB  22080.58334491  .00020839  00000-0  17596-3 0  9999,2 49155  70.0006 317.0964 0003474 249.6510 293.6852 15.69741907 30753,6737.772,91.735,361.978,357.297,0.0
49155.0,STARLINK-3060,PAYLOAD,2022-03-21 22:00:00,15.69707866,0.0003267,70.0006,316.1594,254.6262,11.8391,5.9288e-05,6.859e-05,0.0,0 STARLINK-3060,1 49155U 21082AB  22080.91667824  .00006859  00000-0  59288-4 0  9996,2 49155  70.0006 316.1594 0003267 254.6262  11.8391 15.69707866 30802,6737.87,91.737,361.936,357.534,0.0
49155.0,STARLINK-3060,PAYLOAD,2022-03-22 14:00:01,15.69718124,0.0003371,70.0001,314.2852,248.5667,184.0774,0.00064787,0.00077748,0.0,0 STARLINK-3060,1 49155U 21082AB  22081.58334491  .00077748  00000-0  64787-3 0  9995,2 49155  70.0001 314.2852 0003371 248.5667 184.0774 15.69718124  3706,6737.840999999999,91.736,361.977,357.434,0.0
49155.0,STARLINK-3060,PAYLOAD,2022-03-22 20:00:01,15.69774401,0.0003378,70.0004,313.5823,252.1912,152.792,-6.777e-05,-8.303e-05,0.0,0 STARLINK-3060,1 49155U 21082AB  22081.83334491 -.00008303  00000-0 -67770-4 0  9992,2 49155  70.0004 313.5823 0003378 252.1912 152.7920 15.69774401 30952,6737.679,91.733,361.82,357.26800000000014,0.0
49155.0,STARLINK-3060,PAYLOAD,2022-03-22 22:00:01,15.69755673,0.0003326,70.0003,313.348,254.3244,261.5183,0.0002928,0.00034896,0.0,0 STARLINK-3060,1 49155U 21082AB  22081.91668981  .00034896  00000-0  29280-3 0  9992,2 49155  70.0003 313.3480 0003326 254.3244 261.5183 15.69755673  3694,6737.733,91.734,361.839,357.357,0.0
49155.0,STARLINK-3060,PAYLOAD,2022-03-23 14:00:01,15.69762433,0.0003458999999999,70.0006,311.4741,249.7116,72.3742,-5.9739e-05,-7.341e-05,0.0,0 STARLINK-3060,1 49155U 21082AB  22082.58334491 -.00007341  00000-0 -59739-4 0  9992,2 49155  70.0006 311.4741 0003459 249.7116  72.3742 15.69762433  3713,6737.714,91.734,361.909,357.24800000000016,0.0
49155.0,STARLINK-3060,PAYLOAD,2022-03-23 22:00:00,15.69716695,0.0003229,70.0007,310.5372,253.7878,151.4478,9.8143e-05,0.00011504,0.0,0 STARLINK-3060,1 49155U 21082AB  22082.91667824  .00011504  00000-0  98143-4 0  9994,2 49155  70.0007 310.5372 0003229 253.7878 151.4478 15.69716695 31129,6737.845,91.736,361.885,357.534,0.0
49155.0,STARLINK-3060,PAYLOAD,2022-03-24 14:00:01,15.69775441,0.0003496,70.0003,308.6631,247.9958,323.4597,-9.7296e-05,-0.00011824,0.0,0 STARLINK-3060,1 49155U 21082AB  22083.58334491 -.00011824  00000-0 -97296-4 0  9994,2 49155  70.0003 308.6631 0003496 247.9958 323.4597 15.69775441  3677,6737.676,91.733,361.897,357.186,0.0
49155.0,STARLINK-3060,PAYLOAD,2022-03-24 22:00:00,15.69714581,0.0003464,70.0004,307.7262,255.2471,39.3685,0.00035625,0.00042471,0.0,0 STARLINK-3060,1 49155U 21082AB  22083.91667824  .00042471  00000-0  35625-3 0  9997,2 49155  70.0004 307.7262 0003464 255.2471  39.3685 15.69714581 31271,6737.851,91.736,362.05,357.38199999999995,0.0
49155.0,STARLINK-3060,PAYLOAD,2022-03-25 14:00:01,15.69694152,0.0003803,70.0009,305.8522,250.91,209.9757,0.0005488,0.00065671,0.0,0 STARLINK-3060,1 49155U 21082AB  22084.58334491  .00065671  00000-0  54880-3 0  9993,2 49155  70.0009 305.8522 0003803 250.9100 209.9757 15.69694152 31380,6737.909000000002,91.738,362.337,357.212,0.0
49155.0,STARLINK-3060,PAYLOAD,2022-03-25 22:00:01,15.69722001,0.0003791,70.0012,304.9224,256.8471,287.1963,0.0003142,0.00037424,0.0,0 STARLINK-3060,1 49155U 21082AB  22084.91668981  .00037424  00000-0  31420-3 0  9994,2 49155  70.0012 304.9224 0003791 256.8471 287.1963 15.69722001  3735,6737.829000000002,91.736,362.249,357.14,0.0
49155.0,STARLINK-3060,PAYLOAD,2022-03-26 06:00:00,15.69742695,0.0003511,70.0003,303.9783,254.3439,12.8101,-0.00043485,-0.00051791,0.0,0 STARLINK-3060,1 49155U 21082AB  22085.25001157 -.00051791  00000-0 -43485-3 0  9997,2 49155  70.0003 303.9783 0003511 254.3439  12.8101 15.69742695 31482,6737.77,91.735,362.001,357.27,0.0
49155.0,STARLINK-3060,PAYLOAD,2022-03-26 12:00:00,15.69683669,0.000372,70.0003,303.2756,249.9754,349.5056,0.00087699,0.00105525,0.0,0 STARLINK-3060,1 49155U 21082AB  22085.50001157  .00105525  00000-0  87699-3 0  9993,2 49155  70.0003 303.2756 0003720 249.9754 349.5056 15.69683669 31526,6737.939,91.738,362.311,357.298,0.0
49155.0,STARLINK-3060,PAYLOAD,2022-03-26 14:00:01,15.69719077,0.0003699,70.0006,303.0415,249.8969,100.3445,0.00049501,0.00059228,0.0,0 STARLINK-3060,1 49155U 21082AB  22085.58334491  .00059228  00000-0  49501-3 0  9999,2 49155  70.0006 303.0415 0003699 249.8969 100.3445 15.69719077  3663,6737.8380000000025,91.736,362.195,357.21,0.0
49155.0,STARLINK-3060,PAYLOAD,2022-03-26 20:00:01,15.6975664,0.0003697,70.0005,302.3388,254.278,68.2902,-0.00015945,-0.0001921,0.0,0 STARLINK-3060,1 49155U 21082AB  22085.83334491 -.00019210  00000-0 -15945-3 0  9991,2 49155  70.0005 302.3388 0003697 254.2780  68.2902 15.69756640 31570,6737.73,91.734,362.086,357.10400000000016,0.0
49155.0,STARLINK-3060,PAYLOAD,2022-03-26 22:00:00,15.69760003,0.0003645,70.0005,302.1046,256.1447,177.2051,-0.00027853,-0.00033347,0.0,0 STARLINK-3060,1 49155U 21082AB  22085.91667824 -.00033347  00000-0 -27853-3 0  9997,2 49155  70.0005 302.1046 0003645 256.1447 177.2051 15.69760003  3699,6737.721,91.734,362.042,357.13,0.0
49155.0,STARLINK-3060,PAYLOAD,2022-03-27 06:00:00,15.69792525,0.0003703,70.0003,301.1676,255.2129,261.2895,-0.00074906,-0.00088858,0.0,0 STARLINK-3060,1 49155U 21082AB  22086.25001157 -.00088858  00000-0 -74906-3 0  9994,2 49155  70.0003 301.1676 0003703 255.2129 261.2895 15.69792525 31647,6737.628000000002,91.732,361.98800000000006,356.99800000000016,0.0
49155.0,STARLINK-3060,PAYLOAD,2022-03-27 14:00:01,15.69756337,0.0003866,70.0007,300.2308,250.6256,349.0134,0.00041402,0.00049523,0.0,0 STARLINK-3060,1 49155U 21082AB  22086.58334491  .00049523  00000-0  41402-3 0  9999,2 49155  70.0007 300.2308 0003866 250.6256 349.0134 15.69756337 31690,6737.731,91.734,362.201,356.991,0.0
49155.0,STARLINK-3060,PAYLOAD,2022-03-27 20:00:01,15.69797171,0.0003713,70.0008,299.5282,254.9402,317.0636,-0.00067947,-0.00080716,0.0,0 STARLINK-3060,1 49155U 21082AB  22086.83334491 -.00080716  00000-0 -67947-3 0  9990,2 49155  70.0008 299.5282 0003713 254.9402 317.0636 15.69797171 31731,6737.614000000001,91.732,361.981,356.978,0.0
49155.0,STARLINK-3060,PAYLOAD,2022-03-27 22:00:01,15.69770664,0.0003637,70.0004,299.2964,256.7169,66.1575,-0.00011854,-0.00014352,0.0,0 STARLINK-3060,1 49155U 21082AB  22086.91668981 -.00014352  00000-0 -11854-3 0  9992,2 49155  70.0004 299.2964 0003637 256.7169  66.1575 15.69770664  3669,6737.69,91.733,362.006,357.105,0.0
49155.0,STARLINK-3060,PAYLOAD,2022-03-28 14:00:01,15.69323998,0.0003392,70.0001,297.436,253.3506,235.7525,0.0007491,0.00088594,0.0,0 STARLINK-3060,1 49155U 21082AB  22087.58335648  .00088594  00000-0  74910-3 0  9996,2 49155  70.0001 297.4360 0003392 253.3506 235.7525 15.69323998 31857,6738.969,91.759,363.119,358.548,0.0
49155.0,STARLINK-3060,PAYLOAD,2022-03-28 22:00:00,15.69373792,0.0003507,70.0,296.5027,257.0569,314.6669,-0.0066345,-0.00716734,0.0,0 STARLINK-3060,1 49155U 21082AB  22087.91667824 -.00716734  00000-0 -66345-2 0  9995,2 49155  70.0000 296.5027 0003507 257.0569 314.6669 15.69373792 31903,6738.826,91.756,363.054,358.32800000000015,0.0
49155.0,STARLINK-3060,PAYLOAD,2022-03-29 14:00:01,15.68353202,0.0003649,70.0002,294.6287,259.0614,116.7846,-0.0069358,-0.00718277,0.0,0 STARLINK-3060,1 49155U 21082AB  22088.58334491 -.00718277  00000-0 -69358-2 0  9991,2 49155  70.0002 294.6287 0003649 259.0614 116.7846 15.68353202  3711,6741.749,91.816,366.074,361.154,0.0
49155.0,STARLINK-3060,PAYLOAD,2022-03-29 22:00:00,15.67842972,0.0003523999999999,70.0001,293.6926,265.3811,191.6069,-0.0070948,-0.00719391,0.0,0 STARLINK-3060,1 49155U 21082AB  22088.91667824 -.00719391  00000-0 -70948-2 0  9992,2 49155  70.0001 293.6926 0003524 265.3811 191.6069 15.67842972 32065,6743.212,91.846,367.453,362.7,0.0
